{
    "links": {
        "self": "http://www.neowsapp.com/rest/v1/neo/3843736?api_key=iIulBulltgU6a56xZRHN4H3l9WmuAYTsLGpBGhQ2"
    },
    "id": "3843736",
    "neo_reference_id": "3843736",
    "name": "(2019 QP7)",
    "designation": "2019 QP7",
    "nasa_jpl_url": "http://ssd.jpl.nasa.gov/sbdb.cgi?sstr=3843736",
    "absolute_magnitude_h": 24.3,
    "estimated_diameter": {
        "kilometers": {
            "estimated_diameter_min": 0.0366906138,
            "estimated_diameter_max": 0.0820427065
        },
        "meters": {
            "estimated_diameter_min": 36.6906137531,
            "estimated_diameter_max": 82.0427064882
        },
        "miles": {
            "estimated_diameter_min": 0.0227984834,
            "estimated_diameter_max": 0.0509789586
        },
        "feet": {
            "estimated_diameter_min": 120.3760332259,
            "estimated_diameter_max": 269.1689931548
        }
    },
    "is_potentially_hazardous_asteroid": false,
    "close_approach_data": [
        {
            "close_approach_date": "2019-07-29",
            "close_approach_date_full": "2019-Jul-29 23:46",
            "epoch_date_close_approach": 1564443960000,
            "relative_velocity": {
                "kilometers_per_second": "7.7514740761",
                "kilometers_per_hour": "27905.3066738919",
                "miles_per_hour": "17339.2723607858"
            },
            "miss_distance": {
                "astronomical": "0.07181083",
                "lunar": "27.93441287",
                "kilometers": "10742747.2109321",
                "miles": "6675233.58217898"
            },
            "orbiting_body": "Earth"
        }
    ],
    "orbital_data": {
        "orbit_id": "3",
        "orbit_determination_date": "2019-09-06 06:02:25",
        "first_observation_date": "2019-08-30",
        "last_observation_date": "2019-09-05",
        "data_arc_in_days": 6,
        "observations_used": 21,
        "orbit_uncertainty": "9",
        "minimum_orbit_intersection": ".0248791",
        "jupiter_tisserand_invariant": "3.935",
        "epoch_osculation": "2458727.5",
        "eccentricity": ".4642690159765712",
        "semi_major_axis": "1.7953933075935",
        "inclination": "5.059751383935687",
        "ascending_node_longitude": "341.977675170656",
        "orbital_period": "878.6943418446779",
        "perihelion_distance": ".9618478233861445",
        "perihelion_argument": "309.8403798718827",
        "aphelion_distance": "2.628938791800856",
        "perihelion_time": "2458681.514797550613",
        "mean_anomaly": "18.8400813495913",
        "mean_motion": ".4096987801745004",
        "equinox": "J2000",
        "orbit_class": {
            "orbit_class_type": "APO",
            "orbit_class_description": "Near-Earth asteroid orbits which cross the Earth’s orbit similar to that of 1862 Apollo",
            "orbit_class_range": "a (semi-major axis) > 1.0 AU; q (perihelion) < 1.017 AU"
        }
    },
    "is_sentry_object": false
}